ONEWEB-0300             
1 49089U 21075Q   25164.72597290  .00000056  00000+0  11969-3 0  9993
2 49089  87.8883  63.9393 0001549  81.0845 279.0459 13.12440713186874
ONEWEB-0301             
1 49090U 21075R   25164.70975679  .00000459  00000+0  12407-2 0  9998
2 49090  87.8880  63.9484 0001440  82.8398 277.2894 13.12443289186230
ONEWEB-0302             
1 49091U 21075S   25164.77300767  .00000191  00000+0  49490-3 0  9992
2 49091  87.8884  63.9368 0002286  77.7041 282.4344 13.12445503186221
ONEWEB-0304             
1 49092U 21075T   25165.18166168  .00000108  00000+0  24600-3 0  9998
2 49092  87.9069  79.1326 0002008  74.4364 285.6990 13.17648797186097
ONEWEB-0305             
1 49093U 21075U   25164.79523012 -.00000010  00000+0 -59965-4 0  9997
2 49093  87.9064  79.1869 0002040  66.6576 293.4770 13.17649998185095
ONEWEB-0308             
1 49094U 21075V   25164.76652260 -.00000046  00000+0 -16198-3 0  9992
2 49094  87.8882  63.9329 0001857  79.8651 280.2687 13.12443864186237
ONEWEB-0309             
1 49095U 21075W   25165.17830150  .00000112  00000+0  25653-3 0  9993
2 49095  87.9066  79.1266 0002436  79.7179 280.4227 13.17650923186109
ONEWEB-0310             
1 49096U 21075X   25165.16230684  .00000454  00000+0  12274-2 0  9992
2 49096  87.8889  63.8954 0002024  79.1393 280.9964 13.12442968187917
